[{"OBJECT_NAME":"GLOBAL-12","OBJECT_ID":"2021-115BA","EPOCH":"2026-03-09T13:35:54.273696","MEAN_MOTION":15.47856556,"ECCENTRICITY":0.0003442,"INCLINATION":53.1963,"RA_OF_ASC_NODE":161.5139,"ARG_OF_PERICENTER":55.3902,"MEAN_ANOMALY":304.7431,"EPHEMERIS_TYPE":0,"CLASSIFICATION_TYPE":"U","NORAD_CAT_ID":49772,"ELEMENT_SET_NO":999,"REV_AT_EPOCH":24044,"BSTAR":0.00060973,"MEAN_MOTION_DOT":0.00031924,"MEAN_MOTION_DDOT":0},{"OBJECT_NAME":"KOSAR","OBJECT_ID":"2024-199AL","EPOCH":"2026-03-09T21:51:55.749024","MEAN_MOTION":15.47985172,"ECCENTRICITY":0.00039946,"INCLINATION":97.3118,"RA_OF_ASC_NODE":303.4764,"ARG_OF_PERICENTER":300.8911,"MEAN_ANOMALY":59.1946,"EPHEMERIS_TYPE":0,"CLASSIFICATION_TYPE":"U","NORAD_CAT_ID":61769,"ELEMENT_SET_NO":999,"REV_AT_EPOCH":11903,"BSTAR":0.00063195817,"MEAN_MOTION_DOT":0.00033017,"MEAN_MOTION_DDOT":0}]
